SITRO-AIS 31            
1 59054U 24039D   24321.08853796  .00081806  00000+0  18222-2 0  9998
2 59054  97.4070 283.3607 0016058  49.3774 310.8867 15.43177300 39898
SITRO-AIS 33            
1 59055U 24039E   24321.13341391  .00084110  00000+0  18658-2 0  9992
2 59055  97.4072 283.4649 0015832  49.9958 310.2676 15.43294553 39899
SITRO-AIS 35            
1 59056U 24039F   24321.12814154  .00086487  00000+0  19136-2 0  9995
2 59056  97.4071 283.4670 0015696  50.5586 309.7048 15.43363724 39899
SITRO-AIS 32            
1 59057U 24039G   24321.15203139  .00084216  00000+0  18844-2 0  9997
2 59057  97.4076 283.4408 0015897  50.4770 309.7880 15.43034924 39892
SITRO-AIS 34            
1 59058U 24039H   24321.13284957  .00084044  00000+0  18637-2 0  9992
2 59058  97.4072 283.4676 0015716  50.1254 310.1373 15.43307080 39899
SITRO-AIS 36            
1 59059U 24039J   24321.11437071  .00082250  00000+0  18172-2 0  9999
2 59059  97.4071 283.4864 0015727  50.5764 309.6873 15.43424043 39897
SITRO-AIS 49            
1 59060U 24039K   24321.12696660  .00087800  00000+0  19552-2 0  9992
2 59060  97.4076 283.4723 0015621  49.9719 310.2896 15.43167682 39899
SITRO-AIS 50            
1 59061U 24039L   24321.15442059  .00083550  00000+0  18269-2 0  9999
2 59061  97.4070 283.5831 0015511  49.9423 310.3182 15.43730416 39907
SITRO-AIS 51            
1 59062U 24039M   24321.15326176  .00082389  00000+0  17987-2 0  9996
2 59062  97.4069 283.5828 0015398  50.5534 309.7074 15.43783286 39901
SITRO-AIS 52            
1 59063U 24039N   24321.13615069  .00087294  00000+0  18991-2 0  9993
2 59063  97.4071 283.6102 0015276  50.5853 309.6745 15.43869508 39906
SITRO-AIS 25            
1 59066U 24039R   24321.10855047  .00008991  00000+0  80881-3 0  9990
2 59066  95.3888 200.3662 0163402 178.6225 181.5482 14.86023768 38640
SITRO-AIS 26            
1 59067U 24039S   24321.11508092  .00008630  00000+0  77865-3 0  9995
2 59067  95.3886 200.3597 0163577 178.6924 181.4760 14.85899555 38647
SITRO-AIS 27            
1 59068U 24039T   24321.15191737  .00009886  00000+0  88663-3 0  9996
2 59068  95.3886 200.4395 0162964 178.1937 181.9910 14.86167171 38659
SITRO-AIS 28            
1 59071U 24039U   24321.14467824  .00009789  00000+0  87729-3 0  9996
2 59071  95.3888 200.4487 0162829 178.1979 181.9866 14.86212789 38659
GRBBETA                 
1 60237U 24128C   24320.50031340  .00008278  00000+0  68479-3 0  9993
2 60237  61.9941  76.3386 0026483   3.4370 356.6896 14.99315767 19266
OOV-CUBE (TUBSAT-30)    
1 60240U 24128F   24320.50601329  .00005787  00000+0  50038-3 0  9991
2 60240  61.9979  76.9625 0024597 358.3565   1.7439 14.98047621 19266
ROBUSTA-3A (MEDITERRAN*)
1 60243U 24128J   24320.62316388  .00013372  00000+0  10943-2 0  9994
2 60243  61.9913  76.3239 0024825 350.8881   9.1754 14.99380014 19285
BEIJING 1               
1 28890U 05043A   24321.10969937  .00001001  00000+0  20556-3 0  9997
2 28890  98.2193  83.0650 0013663 292.7935  67.1823 14.62764441 16091
HUANJING 1A (HJ-1A)     
1 33320U 08041A   24321.09397883  .00003777  00000+0  48892-3 0  9990
2 33320  97.6342 320.7601 0018389 232.1248 127.8303 14.81313435872839
HUANJING 1B (HJ-1B)     
1 33321U 08041B   24321.15128531  .00002815  00000+0  36382-3 0  9993
2 33321  97.6265 325.2716 0036120 279.6795  80.0339 14.81240713872867
YAOGAN-4                
1 33446U 08061A   24321.04494340  .00003076  00000+0  40351-3 0  9996
2 33446  97.8897 250.1951 0015497 146.7589 213.4600 14.80949934860022
DEIMOS-1                
1 35681U 09041A   24321.09405025  .00001806  00000+0  28218-3 0  9992
2 35681  97.6841 135.0008 0000197 174.8079 185.3133 14.73953492821686
UK-DMC 2                
1 35683U 09041C   24321.08921151  .00002492  00000+0  38437-3 0  9992
2 35683  97.8026 102.7709 0001177  80.2872 279.8470 14.74233392821385
DMC3-FM1                
1 40715U 15032A   24321.14614035  .00001887  00000+0  23062-3 0  9993
2 40715  97.7248 195.4610 0006372 141.9629 218.2037 14.84395014504115
DMC3-FM2                
1 40716U 15032B   24321.10100056  .00001952  00000+0  23833-3 0  9992
2 40716  97.7303 196.5890 0008062 149.2525 210.9164 14.84391268504100
DMC3-FM3                
1 40717U 15032C   24321.13503383  .00001910  00000+0  23382-3 0  9999
2 40717  97.7354 197.9698 0009557 148.1940 211.9853 14.84296572504116
NOAA 15                 
1 25338U 98030A   24321.07287142  .00000430  00000+0  19525-3 0  9995
2 25338  98.5563 344.9595 0009319 237.4166 122.6115 14.26797339379096
DMSP 5D-3 F16 (USA 172) 
1 28054U 03048A   24321.13642663  .00000389  00000+0  22767-3 0  9993
2 28054  99.0213 329.0573 0007124 351.6104  90.6781 14.14201135 87758
NOAA 18                 
1 28654U 05018A   24321.13445093  .00000473  00000+0  27506-3 0  9996
2 28654  98.8633  36.7642 0013975 356.5485   3.5588 14.13422083  4723
METEOSAT-9 (MSG-2)      
1 28912U 05049B   24318.94350293  .00000135  00000+0  00000+0 0  9990
2 28912   8.0331  59.5709 0002006 186.0660 193.2768  1.00269552  1196
EWS-G1 (GOES 13)        
1 29155U 06018A   24320.69532797  .00000060  00000+0  00000+0 0  9990
2 29155   3.0208  83.4370 0063334 256.1942 197.3116  0.98828850 37534
DMSP 5D-3 F17 (USA 191) 
1 29522U 06050A   24321.12101110  .00000428  00000+0  24511-3 0  9999
2 29522  98.7432 328.5775 0009002 266.5223  93.4921 14.14664480930670
FENGYUN 3A              
1 32958U 08026A   24321.10809139  .00000411  00000+0  21627-3 0  9992
2 32958  98.6231 263.9632 0008827   2.2972 357.8244 14.19280470853506
NOAA 19                 
1 33591U 09005A   24321.10799850  .00000439  00000+0  25875-3 0  9991
2 33591  99.0284  18.3838 0013223 220.8035 139.2147 14.13201117813085
GOES 14                 
1 35491U 09033A   24320.48499024 -.00000057  00000+0  00000+0 0  9999
2 35491   0.1774  91.9996 0003487 114.1322 274.9639  1.00271529   795
DMSP 5D-3 F18 (USA 210) 
1 35951U 09057A   24321.16089661  .00000557  00000+0  31381-3 0  9998
2 35951  98.8347 294.6323 0012225  93.0915 267.1657 14.14385199777844
EWS-G2 (GOES 15)        
1 36411U 10008A   24320.63313228  .00000044  00000+0  00000+0 0  9999
2 36411   0.2052 273.2015 0007296 329.4439 102.0991  1.00275692 53848
COMS 1                  
1 36744U 10032A   24320.96083480 -.00000336  00000+0  00000+0 0  9990
2 36744   3.3374  82.8595 0001046 153.1018 293.6237  1.00272772 52853
FENGYUN 3B              
1 37214U 10059A   24321.21330564  .00000227  00000+0  14173-3 0  9997
2 37214  99.0408 351.3402 0022550  25.5504  39.0312 14.14622368725742
SUOMI NPP               
1 37849U 11061A   24321.14787857  .00000270  00000+0  14895-3 0  9997
2 37849  98.7364 256.9183 0001548 118.9866 241.1465 14.19563686676428
FENGYUN 2F              
1 38049U 12002A   24320.62526892 -.00000287  00000+0  00000+0 0  9996
2 38049   6.1172  72.4770 0002834 158.3114 194.9862  0.99140323 47067
METEOSAT-10 (MSG-3)     
1 38552U 12035B   24320.79246038  .00000002  00000+0  00000+0 0  9994
2 38552   3.3114  61.7330 0001530 223.4662  55.5397  1.00274292 45056
METOP-B                 
1 38771U 12049A   24321.14086368  .00000353  00000+0  18062-3 0  9990
2 38771  98.6088  14.8102 0001172  79.6255 280.5054 14.21586339631138
INSAT-3D                
1 39216U 13038B   24320.60375589 -.00000330  00000+0  00000+0 0  9995
2 39216   0.4245  90.7819 0002109 167.4847 143.7946  1.00272224 41279
FENGYUN 3C              
1 39260U 13052A   24321.20126179  .00000235  00000+0  13907-3 0  9993
2 39260  98.4388 312.8324 0009980 246.4831 113.5296 14.16345004576844
METEOR-M 2              
1 40069U 14037A   24321.11766891  .00000401  00000+0  20385-3 0  9990
2 40069  98.4498 308.6755 0004583 280.0482  80.0179 14.21137685537201
HIMAWARI-8              
1 40267U 14060A   24320.66687324 -.00000267  00000+0  00000+0 0  9997
2 40267   0.0664 106.4042 0001290 135.1111 194.4631  1.00273295 36959
FENGYUN 2G              
1 40367U 14090A   24320.81218226 -.00000294  00000+0  00000+0 0  9999
2 40367   4.1649  79.7831 0002386 182.3057 185.3477  1.00269471 36202
METEOSAT-11 (MSG-4)     
1 40732U 15034A   24320.72278221  .00000071  00000+0  00000+0 0  9997
2 40732   1.7543  71.3326 0001274 180.8155  72.5945  1.00274505  1414
ELEKTRO-L 2             
1 41105U 15074A   24320.64658800 -.00000108  00000+0  00000+0 0  9994
2 41105   5.2269  77.6136 0003959 182.2793  13.6123  1.00272056 32706
INSAT-3DR               
1 41752U 16054A   24320.68452257 -.00000069  00000+0  00000+0 0  9999
2 41752   0.1204  92.1171 0014113 174.3813 109.1923  1.00271682 30012
HIMAWARI-9              
1 41836U 16064A   24320.72202215 -.00000266  00000+0  00000+0 0  9994
2 41836   0.0549 127.5336 0001077 114.8362 213.6355  1.00270876 29400
GOES 16                 
1 41866U 16071A   24320.34867475 -.00000239  00000+0  00000+0 0  9998
2 41866   0.0145 273.9290 0001245  15.2173 176.1352  1.00271498 29301
FENGYUN 4A              
1 41882U 16077A   24320.83381130 -.00000190  00000+0  00000+0 0  9991
2 41882   0.8428  85.8315 0008993 338.7351  17.5297  1.00271477 29120
CYGFM05                 
1 41884U 16078A   24320.98273974  .00021890  00000+0  67489-3 0  9993
2 41884  34.9640  56.6287 0010903 145.0983 215.0450 15.32626275439439
CYGFM04                 
1 41885U 16078B   24320.61382140  .00020400  00000+0  60821-3 0  9999
2 41885  34.9390  41.3736 0010056 159.2714 200.8412 15.33703947439387
CYGFM02                 
1 41886U 16078C   24320.92709633  .00022793  00000+0  66378-3 0  9994
2 41886  34.9482  41.1948 0012491 152.4165 207.7217 15.34398846439527
CYGFM01                 
1 41887U 16078D   24320.66145664  .00019455  00000+0  60539-3 0  9998
2 41887  34.9476  62.7095 0010991 124.0642 236.1120 15.32347902439211
